[{"OBJECT_NAME":"EZIE-A","OBJECT_ID":"2025-052AP","EPOCH":"2026-03-09T23:28:40.313568","MEAN_MOTION":14.96303626,"ECCENTRICITY":0.00037417,"INCLINATION":97.7004,"RA_OF_ASC_NODE":322.7329,"ARG_OF_PERICENTER":145.0909,"MEAN_ANOMALY":215.0559,"EPHEMERIS_TYPE":0,"CLASSIFICATION_TYPE":"U","NORAD_CAT_ID":63247,"ELEMENT_SET_NO":999,"REV_AT_EPOCH":5382,"BSTAR":0.00071342701,"MEAN_MOTION_DOT":8.013e-5,"MEAN_MOTION_DDOT":0},{"OBJECT_NAME":"STARLINK-34036","OBJECT_ID":"2025-098V","EPOCH":"2026-03-09T22:02:25.789056","MEAN_MOTION":14.98331305,"ECCENTRICITY":0.00026518,"INCLINATION":70.0004,"RA_OF_ASC_NODE":274.0016,"ARG_OF_PERICENTER":272.7085,"MEAN_ANOMALY":87.3771,"EPHEMERIS_TYPE":0,"CLASSIFICATION_TYPE":"U","NORAD_CAT_ID":63945,"ELEMENT_SET_NO":999,"REV_AT_EPOCH":4658,"BSTAR":0.00023308969,"MEAN_MOTION_DOT":2.689e-5,"MEAN_MOTION_DDOT":0}]
